start=new Date('2022-02-05T00:00:00.000Z').valueOf();
sats=[{"PERIAPSIS":"545.998","LAUNCH_DATE":"2021-01-20","PERIOD":"95.592","TLE_LINE1":"1 47399U 21005BC  22035.79694364  .00000988  00000-0  85212-4 0  9997","OBJECT_ID":"2021-005BC","REF_FRAME":"TEME","COUNTRY_CODE":"US","INCLINATION":"53.0543","CENTER_NAME":"EARTH","NORAD_CAT_ID":"47399","SEMIMAJOR_AXIS":"6925.337","MEAN_MOTION_DOT":"0.00000988","MEAN_ELEMENT_THEORY":"SGP4","GP_ID":"195306307","DECAY_DATE":null,"FILE":"3292003","MEAN_MOTION":"15.06403627","APOAPSIS":"548.407","RA_OF_ASC_NODE":"267.9680","TLE_LINE2":"2 47399  53.0543 267.9680 0001739  68.1178 291.9996 15.06403627 58151","REV_AT_EPOCH":"5815","SITE":"AFETR","TIME_SYSTEM":"UTC","ARG_OF_PERICENTER":"68.1178","CLASSIFICATION_TYPE":"U","OBJECT_TYPE":"PAYLOAD","EPOCH":"2022-02-04T19:07:35.930496","MEAN_ANOMALY":"291.9996","RCS_SIZE":"LARGE","OBJECT_NAME":"STARLINK-2121","ELEMENT_SET_NO":"999","EPHEMERIS_TYPE":"0","BSTAR":"0.00008521200000","ECCENTRICITY":"0.00017390","MEAN_MOTION_DDOT":"0.0000000000000"},{"COUNTRY_CODE":"US","OBJECT_ID":"2021-005BD","REF_FRAME":"TEME","INCLINATION":"53.0538","CENTER_NAME":"EARTH","LAUNCH_DATE":"2021-01-20","PERIOD":"95.592","PERIAPSIS":"546.018","TLE_LINE1":"1 47400U 21005BD  22035.31593868  .00001068  00000-0  90575-4 0  9993","RA_OF_ASC_NODE":"250.1127","REV_AT_EPOCH":"5836","TLE_LINE2":"2 47400  53.0538 250.1127 0001747  71.4229 288.6949 15.06395231 58366","FILE":"3291889","MEAN_MOTION":"15.06395231","APOAPSIS":"548.438","SITE":"AFETR","GP_ID":"195298884","MEAN_ELEMENT_THEORY":"SGP4","SEMIMAJOR_AXIS":"6925.363","NORAD_CAT_ID":"47400","MEAN_MOTION_DOT":"0.00001068","DECAY_DATE":null,"OBJECT_TYPE":"PAYLOAD","EPOCH":"2022-02-04T07:34:57.101952","CLASSIFICATION_TYPE":"U","MEAN_ANOMALY":"288.6949","ARG_OF_PERICENTER":"71.4229","TIME_SYSTEM":"UTC","ECCENTRICITY":"0.00017470","MEAN_MOTION_DDOT":"0.0000000000000","ELEMENT_SET_NO":"999","RCS_SIZE":"LARGE","OBJECT_NAME":"STARLINK-2122","BSTAR":"0.00009057500000","EPHEMERIS_TYPE":"0"},{"CENTER_NAME":"EARTH","INCLINATION":"53.0547","COUNTRY_CODE":"US","REF_FRAME":"TEME","OBJECT_ID":"2021-005BE","TLE_LINE1":"1 47401U 21005BE  22035.86516131  .00003343  00000-0  24323-3 0  9997","PERIOD":"95.592","LAUNCH_DATE":"2021-01-20","PERIAPSIS":"546.078","SITE":"AFETR","TLE_LINE2":"2 47401  53.0547 257.6675 0001638  63.6152 296.5005 15.06400360 58927","REV_AT_EPOCH":"5892","RA_OF_ASC_NODE":"257.6675","APOAPSIS":"548.347","FILE":"3292003","MEAN_MOTION":"15.06400360","DECAY_DATE":null,"GP_ID":"195306313","MEAN_ELEMENT_THEORY":"SGP4","MEAN_MOTION_DOT":"0.00003343","SEMIMAJOR_AXIS":"6925.347","NORAD_CAT_ID":"47401","MEAN_ANOMALY":"296.5005","CLASSIFICATION_TYPE":"U","OBJECT_TYPE":"PAYLOAD","EPOCH":"2022-02-04T20:45:49.937184","ARG_OF_PERICENTER":"63.6152","TIME_SYSTEM":"UTC","MEAN_MOTION_DDOT":"0.0000000000000","ECCENTRICITY":"0.00016380","BSTAR":"0.00024323000000","EPHEMERIS_TYPE":"0","RCS_SIZE":"LARGE","ELEMENT_SET_NO":"999","OBJECT_NAME":"STARLINK-2123"},{"ECCENTRICITY":"0.00017230","MEAN_MOTION_DDOT":"0.0000000000000","OBJECT_NAME":"STARLINK-2124","RCS_SIZE":"LARGE","ELEMENT_SET_NO":"999","BSTAR":"0.00014537000000","EPHEMERIS_TYPE":"0","OBJECT_TYPE":"PAYLOAD","CLASSIFICATION_TYPE":"U","EPOCH":"2022-02-04T19:36:50.144256","MEAN_ANOMALY":"297.4226","TIME_SYSTEM":"UTC","ARG_OF_PERICENTER":"62.6938","TLE_LINE2":"2 47402  53.0526 257.8734 0001723  62.6938 297.4226 15.06400296 58911","REV_AT_EPOCH":"5891","RA_OF_ASC_NODE":"257.8734","APOAPSIS":"548.406","MEAN_MOTION":"15.06400296","FILE":"3292004","SITE":"AFETR","GP_ID":"195305831","MEAN_ELEMENT_THEORY":"SGP4","MEAN_MOTION_DOT":"0.00001884","SEMIMAJOR_AXIS":"6925.348","NORAD_CAT_ID":"47402","DECAY_DATE":null,"COUNTRY_CODE":"US","REF_FRAME":"TEME","OBJECT_ID":"2021-005BF","CENTER_NAME":"EARTH","INCLINATION":"53.0526","PERIOD":"95.592","LAUNCH_DATE":"2021-01-20","PERIAPSIS":"546.019","TLE_LINE1":"1 47402U 21005BF  22035.81724704  .00001884  00000-0  14537-3 0  9994"},{"MEAN_MOTION_DDOT":"0.0000000000000","ECCENTRICITY":"0.00016750","EPHEMERIS_TYPE":"0","BSTAR":"0.00019830000000","ELEMENT_SET_NO":"999","RCS_SIZE":"LARGE","OBJECT_NAME":"STARLINK-2127","MEAN_ANOMALY":"288.6755","OBJECT_TYPE":"PAYLOAD","EPOCH":"2022-02-04T19:47:26.945952","CLASSIFICATION_TYPE":"U","TIME_SYSTEM":"UTC","ARG_OF_PERICENTER":"71.4416","SITE":"AFETR","FILE":"3292004","MEAN_MOTION":"15.06397758","APOAPSIS":"548.380","RA_OF_ASC_NODE":"257.8508","REV_AT_EPOCH":"5891","TLE_LINE2":"2 47403  53.0522 257.8508 0001675  71.4416 288.6755 15.06397758 58919","DECAY_DATE":null,"SEMIMAJOR_AXIS":"6925.355","NORAD_CAT_ID":"47403","MEAN_MOTION_DOT":"0.00002673","GP_ID":"195306325","MEAN_ELEMENT_THEORY":"SGP4","INCLINATION":"53.0522","CENTER_NAME":"EARTH","OBJECT_ID":"2021-005BG","REF_FRAME":"TEME","COUNTRY_CODE":"US","TLE_LINE1":"1 47403U 21005BG  22035.82461743  .00002673  00000-0  19830-3 0  9995","PERIAPSIS":"546.060","LAUNCH_DATE":"2021-01-20","PERIOD":"95.592"},{"TIME_SYSTEM":"UTC","ARG_OF_PERICENTER":"64.7076","OBJECT_TYPE":"PAYLOAD","CLASSIFICATION_TYPE":"U","EPOCH":"2022-02-04T08:33:21.568032","MEAN_ANOMALY":"295.4103","ELEMENT_SET_NO":"999","RCS_SIZE":"LARGE","OBJECT_NAME":"STARLINK-2128","BSTAR":"0.00000300150000","EPHEMERIS_TYPE":"0","ECCENTRICITY":"0.00018290","MEAN_MOTION_DDOT":"0.0000000000000","LAUNCH_DATE":"2021-01-20","PERIOD":"95.592","PERIAPSIS":"545.951","TLE_LINE1":"1 47404U 21005BH  22035.35649963 -.00000237  00000-0  30015-5 0  9991","COUNTRY_CODE":"US","OBJECT_ID":"2021-005BH","REF_FRAME":"TEME","INCLINATION":"53.0535","CENTER_NAME":"EARTH","GP_ID":"195299384","MEAN_ELEMENT_THEORY":"SGP4","NORAD_CAT_ID":"47404","SEMIMAJOR_AXIS":"6925.353","MEAN_MOTION_DOT":"-0.00000237","DECAY_DATE":null,"RA_OF_ASC_NODE":"259.9508","TLE_LINE2":"2 47404  53.0535 259.9508 0001829  64.7076 295.4103 15.06398653 58238","REV_AT_EPOCH":"5823","FILE":"3291889","MEAN_MOTION":"15.06398653","APOAPSIS":"548.484","SITE":"AFETR"},{"OBJECT_ID":"2021-005BJ","REF_FRAME":"TEME","COUNTRY_CODE":"US","INCLINATION":"53.0500","CENTER_NAME":"EARTH","PERIAPSIS":"545.993","LAUNCH_DATE":"2021-01-20","PERIOD":"95.592","TLE_LINE1":"1 47405U 21005BJ  22035.40532944  .00002888  00000-0  21266-3 0  9997","FILE":"3291889","MEAN_MOTION":"15.06408372","APOAPSIS":"548.383","RA_OF_ASC_NODE":"289.7234","REV_AT_EPOCH":"5781","TLE_LINE2":"2 47405  53.0500 289.7234 0001725  63.2953 296.8212 15.06408372 57810","SITE":"AFETR","SEMIMAJOR_AXIS":"6925.323","NORAD_CAT_ID":"47405","MEAN_MOTION_DOT":"0.00002888","MEAN_ELEMENT_THEORY":"SGP4","GP_ID":"195299635","DECAY_DATE":null,"OBJECT_TYPE":"PAYLOAD","CLASSIFICATION_TYPE":"U","EPOCH":"2022-02-04T09:43:40.463616","MEAN_ANOMALY":"296.8212","TIME_SYSTEM":"UTC","ARG_OF_PERICENTER":"63.2953","ECCENTRICITY":"0.00017250","MEAN_MOTION_DDOT":"0.0000000000000","OBJECT_NAME":"STARLINK-2130","RCS_SIZE":"LARGE","ELEMENT_SET_NO":"999","EPHEMERIS_TYPE":"0","BSTAR":"0.00021266000000"},{"MEAN_MOTION_DDOT":"0.0000000000000","ECCENTRICITY":"0.00017020","EPHEMERIS_TYPE":"0","BSTAR":"0.00013410000000","ELEMENT_SET_NO":"999","RCS_SIZE":"LARGE","OBJECT_NAME":"STARLINK-2133","MEAN_ANOMALY":"277.8620","OBJECT_TYPE":"PAYLOAD","CLASSIFICATION_TYPE":"U","EPOCH":"2022-02-04T19:58:05.108448","TIME_SYSTEM":"UTC","ARG_OF_PERICENTER":"82.2562","SITE":"AFETR","MEAN_MOTION":"15.06398135","FILE":"3292004","APOAPSIS":"548.398","RA_OF_ASC_NODE":"257.8054","REV_AT_EPOCH":"5891","TLE_LINE2":"2 47406  53.0535 257.8054 0001702  82.2562 277.8620 15.06398135 58916","DECAY_DATE":null,"NORAD_CAT_ID":"47406","SEMIMAJOR_AXIS":"6925.354","MEAN_MOTION_DOT":"0.00001716","GP_ID":"195305825","MEAN_ELEMENT_THEORY":"SGP4","INCLINATION":"53.0535","CENTER_NAME":"EARTH","OBJECT_ID":"2021-005BK","REF_FRAME":"TEME","COUNTRY_CODE":"US","TLE_LINE1":"1 47406U 21005BK  22035.83200357  .00001716  00000-0  13410-3 0  9996","PERIAPSIS":"546.041","LAUNCH_DATE":"2021-01-20","PERIOD":"95.592"},{"ARG_OF_PERICENTER":"63.0466","TIME_SYSTEM":"UTC","MEAN_ANOMALY":"297.0705","CLASSIFICATION_TYPE":"U","OBJECT_TYPE":"PAYLOAD","EPOCH":"2022-02-04T07:24:22.600224","BSTAR":"0.00035232000000","EPHEMERIS_TYPE":"0","ELEMENT_SET_NO":"999","RCS_SIZE":"LARGE","OBJECT_NAME":"STARLINK-2134","MEAN_MOTION_DDOT":"0.0000000000000","ECCENTRICITY":"0.00017860","TLE_LINE1":"1 47407U 21005BL  22035.30859491  .00004970  00000-0  35232-3 0  9999","PERIOD":"95.592","LAUNCH_DATE":"2021-01-20","PERIAPSIS":"545.987","CENTER_NAME":"EARTH","INCLINATION":"53.0522","COUNTRY_CODE":"US","REF_FRAME":"TEME","OBJECT_ID":"2021-005BL","DECAY_DATE":null,"MEAN_ELEMENT_THEORY":"SGP4","GP_ID":"195298636","MEAN_MOTION_DOT":"0.00004970","NORAD_CAT_ID":"47407","SEMIMAJOR_AXIS":"6925.359","SITE":"AFETR","TLE_LINE2":"2 47407  53.0522 260.1681 0001786  63.0466 297.0705 15.06396690 58224","REV_AT_EPOCH":"5822","RA_OF_ASC_NODE":"260.1681","APOAPSIS":"548.461","MEAN_MOTION":"15.06396690","FILE":"3291889"},{"DECAY_DATE":null,"MEAN_MOTION_DOT":"0.00001781","SEMIMAJOR_AXIS":"6925.340","NORAD_CAT_ID":"47408","MEAN_ELEMENT_THEORY":"SGP4","GP_ID":"195305820","SITE":"AFETR","APOAPSIS":"548.413","MEAN_MOTION":"15.06402751","FILE":"3292004","REV_AT_EPOCH":"5891","TLE_LINE2":"2 47408  53.0536 257.9058 0001744  66.0899 294.0272 15.06402751 58917","RA_OF_ASC_NODE":"257.9058","TLE_LINE1":"1 47408U 21005BM  22035.80986948  .00001781  00000-0  13841-3 0  9992","PERIAPSIS":"545.997","PERIOD":"95.592","LAUNCH_DATE":"2021-01-20","CENTER_NAME":"EARTH","INCLINATION":"53.0536","REF_FRAME":"TEME","OBJECT_ID":"2021-005BM","COUNTRY_CODE":"US","EPHEMERIS_TYPE":"0","BSTAR":"0.00013841000000","RCS_SIZE":"LARGE","ELEMENT_SET_NO":"999","OBJECT_NAME":"STARLINK-2135","MEAN_MOTION_DDOT":"0.0000000000000","ECCENTRICITY":"0.00017440","TIME_SYSTEM":"UTC","ARG_OF_PERICENTER":"66.0899","MEAN_ANOMALY":"294.0272","CLASSIFICATION_TYPE":"U","OBJECT_TYPE":"PAYLOAD","EPOCH":"2022-02-04T19:26:12.723072"}];
